      2.10          N: GNSS NAV DATA                        RINEX VERSION / TYPE
fic2rin                                 05/13/2023 00:17:57 PGM / RUN BY / DATE
                                                            END OF HEADER
24 23  5 12  2  0  0.0 -.185392331332D-03 -.139834810398D-10  .000000000000D+00
     .870000000000D+02  .101875000000D+02  .537058084911D-08 -.427444231648D+00
     .599771738052D-06  .138466539793D-01  .824406743050D-05  .515364953423D+04
     .439200000000D+06 -.130385160446D-07 -.603840677325D+00  .175088644028D-06
     .933988418972D+00  .204718750000D+03  .892592915118D+00 -.856214236188D-08
     .900037490174D-10  .100000000000D+01  .226100000000D+04  .000000000000D+00
     .240000000000D+01  .000000000000D+00  .279396772385D-08  .870000000000D+02
     .432000000000D+06  .400000000000D+01
16 23  5 12  2  0  0.0 -.501785892993D-03  .318323145621D-11  .000000000000D+00
     .920000000000D+02  .229062500000D+02  .436589614281D-08  .236221049502D+01
     .992789864540D-06  .133393141441D-01  .767596065998D-05  .515359356880D+04
     .439200000000D+06 -.782310962677D-07  .619117565097D+00 -.186264514923D-06
     .965516793467D+00  .235031250000D+03  .787372542507D+00 -.781996859022D-08
    -.340014162955D-09  .100000000000D+01  .226100000000D+04  .000000000000D+00
     .240000000000D+01  .000000000000D+00 -.102445483208D-07  .920000000000D+02
     .432000000000D+06  .400000000000D+01
30 23  5 12  2  0  0.0 -.517693813890D-03  .216004991671D-11  .000000000000D+00
     .670000000000D+02  .117812500000D+02  .516021494367D-08 -.147645686529D+01
     .502914190292D-06  .646944576874D-02  .788457691669D-05  .515359158516D+04
     .439200000000D+06  .113621354103D-06 -.507100609679D+00 -.121071934700D-06
     .935603264020D+00  .213093750000D+03 -.259273232466D+01 -.815962559544D-08
     .166435504135D-09  .100000000000D+01  .226100000000D+04  .000000000000D+00
     .240000000000D+01  .000000000000D+00  .372529029846D-08  .670000000000D+02
     .432000000000D+06  .400000000000D+01
27 23  5 12  2  0  0.0  .394261442125D-04 -.807176547823D-11  .000000000000D+00
     .850000000000D+02  .640000000000D+02  .416838791580D-08  .149242899610D+01
     .328756868839D-05  .115732320119D-01  .845827162266D-05  .515367023277D+04
     .439200000000D+06 -.158324837685D-06  .157463097009D+01  .745058059692D-07
     .967566562597D+00  .220531250000D+03  .733811193930D+00 -.800461913880D-08
    -.194293807403D-09  .100000000000D+01  .226100000000D+04  .000000000000D+00
     .340000000000D+01  .000000000000D+00  .186264514923D-08  .850000000000D+02
     .432000000000D+06  .400000000000D+01
15 23  5 12  2  0  0.0  .387178733945D-04  .341060513165D-11  .000000000000D+00
     .820000000000D+02 -.768125000000D+02  .537593821512D-08  .515809618478D+00
    -.369548797607D-05  .148496977054D-01  .861845910549D-05  .515371880722D+04
     .439200000000D+06 -.162050127983D-06 -.170344735405D+01  .689178705215D-07
     .932002130247D+00  .203093750000D+03  .119496463935D+01 -.860785855186D-08
    -.367872466222D-10  .100000000000D+01  .226100000000D+04  .000000000000D+00
     .240000000000D+01  .000000000000D+00 -.107102096081D-07  .820000000000D+02
     .432000000000D+06  .400000000000D+01
20 23  5 12  2  0  0.0  .434077810496D-03 -.204636307899D-11  .000000000000D+00
     .710000000000D+02 -.563125000000D+02  .512021327744D-08  .748763473347D-01
    -.288709998131D-05  .419752113521D-02  .330433249474D-05  .515381725693D+04
     .439200000000D+06  .931322574615D-08 -.277830918693D+01  .726431608200D-07
     .948508809862D+00  .311531250000D+03 -.288188546052D+01 -.858107172180D-08
     .357157734196D-10  .100000000000D+01  .226100000000D+04  .000000000000D+00
     .240000000000D+01  .000000000000D+00 -.838190317154D-08  .710000000000D+02
     .432000000000D+06  .400000000000D+01
26 23  5 12  2  0  0.0  .240903347731D-03 -.454747350886D-12  .000000000000D+00
     .860000000000D+02  .219375000000D+02  .513378527133D-08 -.298897157302D+01
     .110268592834D-05  .790114852134D-02  .698491930962D-05  .515368353271D+04
     .439200000000D+06 -.596046447754D-07  .463356055840D+00 -.763684511185D-07
     .934343713497D+00  .231562500000D+03  .464369801015D+00 -.824998650220D-08
    -.264653881039D-09  .100000000000D+01  .226100000000D+04  .000000000000D+00
     .240000000000D+01  .000000000000D+00  .698491930962D-08  .860000000000D+02
     .432000000000D+06  .400000000000D+01
19 23  5 12  2  0  0.0  .315679237247D-03  .511590769747D-11  .000000000000D+00
     .470000000000D+02  .898750000000D+02  .393337812670D-08 -.268480894886D+01
     .485777854919D-05  .938111334108D-02  .887922942638D-05  .515362573624D+04
     .439200000000D+06 -.484287738800D-07  .168482206623D+01  .968575477600D-07
     .973282778940D+00  .207812500000D+03  .229184257009D+01 -.768674875537D-08
    -.335728270144D-10  .100000000000D+01  .226100000000D+04  .000000000000D+00
     .340000000000D+01  .000000000000D+00 -.153668224812D-07  .470000000000D+02
     .432000000000D+06  .400000000000D+01
25 23  5 12  2  0  0.0  .442170072347D-03  .272848410532D-11  .000000000000D+00
     .510000000000D+02  .210312500000D+02  .466269421993D-08 -.226977748203D+01
     .111386179924D-05  .111190637108D-01  .692531466484D-05  .515373274612D+04
     .439200000000D+06  .670552253723D-07  .518731904135D+00 -.894069671631D-07
     .953546570151D+00  .242343750000D+03  .104982078763D+01 -.789961476495D-08
    -.224295057075D-09  .100000000000D+01  .226100000000D+04  .000000000000D+00
     .240000000000D+01  .000000000000D+00  .558793544769D-08  .510000000000D+02
     .432000000000D+06  .400000000000D+01
13 23  5 12  2  0  0.0  .518658198416D-03  .545696821064D-11  .000000000000D+00
     .105000000000D+03 -.665625000000D+02  .436518182734D-08  .107971638609D+01
    -.325217843056D-05  .691297906451D-02  .101160258055D-04  .515367270851D+04
     .439200000000D+06 -.577419996262D-07 -.142535613761D+01  .145286321640D-06
     .969382278000D+00  .191312500000D+03  .909091222453D+00 -.793425906517D-08
     .982183769039D-10  .100000000000D+01  .226100000000D+04  .000000000000D+00
     .240000000000D+01  .000000000000D+00 -.111758708954D-07  .105000000000D+03
     .432000000000D+06  .400000000000D+01
28 23  5 12  2  0  0.0  .766757875681D-04  .375166564481D-11  .000000000000D+00
     .107000000000D+03  .185000000000D+02  .457554773279D-08 -.292151794182D+01
     .101141631603D-05  .740988063626D-03  .858120620251D-05  .515367206192D+04
     .439200000000D+06 -.335276126862D-07 -.550964964805D+00 -.186264514923D-08
     .961601280062D+00  .216343750000D+03  .172105733576D+01 -.793354474970D-08
     .967897459671D-10  .100000000000D+01  .226100000000D+04  .000000000000D+00
     .240000000000D+01  .000000000000D+00 -.977888703346D-08  .363000000000D+03
     .432000000000D+06  .400000000000D+01
14 23  5 12  2  0  0.0  .538527965546D-04  .128466126625D-10  .000000000000D+00
     .216000000000D+03  .250937500000D+02  .473984029052D-08 -.209563446123D+01
     .126473605633D-05  .309079338331D-02  .764429569244D-05  .515367104530D+04
     .439200000000D+06 -.391155481339D-07  .562435815184D+00  .279396772385D-07
     .949192263245D+00  .227625000000D+03 -.303537738989D+01 -.802712007606D-08
    -.268582616115D-09  .100000000000D+01  .226100000000D+04  .000000000000D+00
     .240000000000D+01  .000000000000D+00 -.791624188423D-08  .216000000000D+03
     .432000000000D+06  .400000000000D+01
18 23  5 12  2  0  0.0 -.262494198978D-03 -.159161572810D-10  .000000000000D+00
     .460000000000D+02  .391562500000D+02  .425160566787D-08 -.557143546648D+00
     .208616256714D-05  .316512782592D-02  .442191958427D-05  .515367876816D+04
     .439200000000D+06  .931322574615D-08  .264432172111D+01  .186264514923D-07
     .973903079612D+00  .298093750000D+03  .312605798063D+01 -.813748181592D-08
     .263939565571D-09  .100000000000D+01  .226100000000D+04  .000000000000D+00
     .240000000000D+01  .000000000000D+00 -.838190317154D-08  .558000000000D+03
     .432000000000D+06  .400000000000D+01
23 23  5 12  2  0  0.0  .234851613641D-04  .306954461848D-11  .000000000000D+00
     .990000000000D+02 -.708437500000D+02  .441875548747D-08 -.161398344740D+01
    -.368803739548D-05  .314768427052D-02  .460445880890D-05  .515365909195D+04
     .439200000000D+06  .931322574615D-07 -.263961333975D+01 -.633299350739D-07
     .973799121728D+00  .297031250000D+03 -.309248485043D+01 -.815783980677D-08
     .725030200418D-10  .100000000000D+01  .226100000000D+04  .000000000000D+00
     .240000000000D+01  .000000000000D+00 -.838190317154D-08  .867000000000D+03
     .432000000000D+06  .400000000000D+01
22 23  5 12  2  0  0.0  .479781068861D-03  .648014975013D-11  .000000000000D+00
     .580000000000D+02 -.603437500000D+02  .450125892407D-08  .127583876502D+01
    -.331550836563D-05  .143359526992D-01  .101607292891D-04  .515363075256D+04
     .439200000000D+06 -.281259417534D-06 -.148032745980D+01 -.195577740669D-06
     .962240042760D+00  .191531250000D+03 -.180626531674D+01 -.804819238237D-08
     .575023952056D-10  .100000000000D+01  .226100000000D+04  .000000000000D+00
     .240000000000D+01  .630000000000D+02 -.838190317154D-08  .580000000000D+02
     .432000000000D+06  .400000000000D+01
19 23  5 12  1 59 44.0  .315679702908D-03  .511590769747D-11  .000000000000D+00
     .200000000000D+01  .898750000000D+02  .393373528444D-08 -.268714282692D+01
     .485777854919D-05  .938111438882D-02  .887922942638D-05  .515362574005D+04
     .439184000000D+06 -.484287738800D-07  .168482219497D+01  .968575477600D-07
     .973282776014D+00  .207812500000D+03  .229184257594D+01 -.768674875537D-08
    -.332156692802D-10  .100000000000D+01  .226100000000D+04  .000000000000D+00
     .240000000000D+01  .000000000000D+00 -.153668224812D-07  .200000000000D+01
     .432150000000D+06  .400000000000D+01
